[
    {
        "Altitude(m)": 557914.12297352,
        "Argument of Periapsis(deg)": 0.006622991110713501,
        "Eccentricity": 0.0,
        "Inclination(deg)": 53.0,
        "Latitude(deg)": 44.44984398678478,
        "Longitude(deg)": -103.45080039532924,
        "Mean Anomaly(deg)": -298.9993071324224,
        "RAAN(deg)": 309.990143368528,
        "Satellite Name": "Starlink Shell 1 1367",
        "Satellite Number": 1367,
        "Semi-Major Axis(m)": 6931778.249405717,
        "Time(s)": 190
    },
    {
        "Altitude(m)": 557990.013460374,
        "Argument of Periapsis(deg)": 0.0069715695902247375,
        "Eccentricity": 0.0,
        "Inclination(deg)": 53.0,
        "Latitude(deg)": 44.78742682382976,
        "Longitude(deg)": -102.75122805100514,
        "Mean Anomaly(deg)": -298.3724759288657,
        "RAAN(deg)": 309.9896245984506,
        "Satellite Name": "Starlink Shell 1 1367",
        "Satellite Number": 1367,
        "Semi-Major Axis(m)": 6931778.249405717,
        "Time(s)": 200
    },
    {
        "Altitude(m)": 558065.0020490581,
        "Argument of Periapsis(deg)": 0.007320148069735974,
        "Eccentricity": 0.0,
        "Inclination(deg)": 53.0,
        "Latitude(deg)": 45.120128871170664,
        "Longitude(deg)": -102.04304008459201,
        "Mean Anomaly(deg)": -297.745644725309,
        "RAAN(deg)": 309.9891058283731,
        "Satellite Name": "Starlink Shell 1 1367",
        "Satellite Number": 1367,
        "Semi-Major Axis(m)": 6931778.249405717,
        "Time(s)": 210
    },
    {
        "Altitude(m)": 558139.0418733318,
        "Argument of Periapsis(deg)": 0.007668726549247212,
        "Eccentricity": 0.0,
        "Inclination(deg)": 53.0,
        "Latitude(deg)": 45.44783733608703,
        "Longitude(deg)": -101.32616433495392,
        "Mean Anomaly(deg)": -297.11881352175226,
        "RAAN(deg)": 309.9885870582956,
        "Satellite Name": "Starlink Shell 1 1367",
        "Satellite Number": 1367,
        "Semi-Major Axis(m)": 6931778.249405717,
        "Time(s)": 220
    },
    {
        "Altitude(m)": 558212.086755948,
        "Argument of Periapsis(deg)": 0.00801730502875845,
        "Eccentricity": 0.0,
        "Inclination(deg)": 53.0,
        "Latitude(deg)": 45.770437874170035,
        "Longitude(deg)": -100.60053493524194,
        "Mean Anomaly(deg)": -296.49198231819554,
        "RAAN(deg)": 309.98806828821813,
        "Satellite Name": "Starlink Shell 1 1367",
        "Satellite Number": 1367,
        "Semi-Major Axis(m)": 6931778.249405717,
        "Time(s)": 230
    },
    {
        "Altitude(m)": 558284.0912316712,
        "Argument of Periapsis(deg)": 0.008365883508269684,
        "Eccentricity": 0.0,
        "Inclination(deg)": 53.0,
        "Latitude(deg)": 46.08781465975757,
        "Longitude(deg)": -99.86609230709114,
        "Mean Anomaly(deg)": -295.8651511146389,
        "RAAN(deg)": 309.98754951814067,
        "Satellite Name": "Starlink Shell 1 1367",
        "Satellite Number": 1367,
        "Semi-Major Axis(m)": 6931778.249405717,
        "Time(s)": 240
    },
    {
        "Altitude(m)": 558355.0105699394,
        "Argument of Periapsis(deg)": 0.008714461987780921,
        "Eccentricity": 0.0,
        "Inclination(deg)": 53.0,
        "Latitude(deg)": 46.39985046523335,
        "Longitude(deg)": -99.12278468200728,
        "Mean Anomaly(deg)": -295.2383199110821,
        "RAAN(deg)": 309.9870307480632,
        "Satellite Name": "Starlink Shell 1 1367",
        "Satellite Number": 1367,
        "Semi-Major Axis(m)": 6931778.249405717,
        "Time(s)": 250
    },
    {
        "Altitude(m)": 558424.8007970828,
        "Argument of Periapsis(deg)": 0.009063040467292158,
        "Eccentricity": 0.0,
        "Inclination(deg)": 53.0,
        "Latitude(deg)": 46.70642674958463,
        "Longitude(deg)": -98.37056812276396,
        "Mean Anomaly(deg)": -294.6114887075254,
        "RAAN(deg)": 309.98651197798574,
        "Satellite Name": "Starlink Shell 1 1367",
        "Satellite Number": 1367,
        "Semi-Major Axis(m)": 6931778.249405717,
        "Time(s)": 260
    },
    {
        "Altitude(m)": 558493.4187182306,
        "Argument of Periapsis(deg)": 0.009411618946803396,
        "Eccentricity": 0.0,
        "Inclination(deg)": 53.0,
        "Latitude(deg)": 47.00742375660092,
        "Longitude(deg)": -97.60940655597872,
        "Mean Anomaly(deg)": -293.9846575039687,
        "RAAN(deg)": 309.9859932079082,
        "Satellite Name": "Starlink Shell 1 1367",
        "Satellite Number": 1367,
        "Semi-Major Axis(m)": 6931778.249405717,
        "Time(s)": 270
    },
    {
        "Altitude(m)": 558560.8219387084,
        "Argument of Periapsis(deg)": 0.009760197426314633,
        "Eccentricity": 0.0,
        "Inclination(deg)": 53.0,
        "Latitude(deg)": 47.302720623067025,
        "Longitude(deg)": -96.83927332678303,
        "Mean Anomaly(deg)": -293.35782630041194,
        "RAAN(deg)": 309.98547443783076,
        "Satellite Name": "Starlink Shell 1 1367",
        "Satellite Number": 1367,
        "Semi-Major Axis(m)": 6931778.249405717,
        "Time(s)": 280
    },
    {
        "Altitude(m)": 558626.9688851107,
        "Argument of Periapsis(deg)": 0.01010877590582587,
        "Eccentricity": 0.0,
        "Inclination(deg)": 53.0,
        "Latitude(deg)": 47.592195497275014,
        "Longitude(deg)": -96.06015124760387,
        "Mean Anomaly(deg)": -292.7309950968553,
        "RAAN(deg)": 309.9849556677533,
        "Satellite Name": "Starlink Shell 1 1367",
        "Satellite Number": 1367,
        "Semi-Major Axis(m)": 6931778.249405717,
        "Time(s)": 290
    },
    {
        "Altitude(m)": 558691.8188258846,
        "Argument of Periapsis(deg)": 0.010457354385337106,
        "Eccentricity": 0.0,
        "Inclination(deg)": 53.0,
        "Latitude(deg)": 47.875725668143204,
        "Longitude(deg)": -95.27203265140537,
        "Mean Anomaly(deg)": -292.10416389329856,
        "RAAN(deg)": 309.98443689767583,
        "Satellite Name": "Starlink Shell 1 1367",
        "Satellite Number": 1367,
        "Semi-Major Axis(m)": 6931778.249405717,
        "Time(s)": 300
    },
    {
        "Altitude(m)": 558755.3318914926,
        "Argument of Periapsis(deg)": 0.010805932864848343,
        "Eccentricity": 0.0,
        "Inclination(deg)": 53.0,
        "Latitude(deg)": 48.15318770518624,
        "Longitude(deg)": -94.47492095944362,
        "Mean Anomaly(deg)": -291.47733268974184,
        "RAAN(deg)": 309.9839181275983,
        "Satellite Name": "Starlink Shell 1 1367",
        "Satellite Number": 1367,
        "Semi-Major Axis(m)": 6931778.249405717,
        "Time(s)": 310
    },
    {
        "Altitude(m)": 558817.4690941542,
        "Argument of Periapsis(deg)": 0.01115451134435958,
        "Eccentricity": 0.0,
        "Inclination(deg)": 53.0,
        "Latitude(deg)": 48.42445760953117,
        "Longitude(deg)": -93.66883073467764,
        "Mean Anomaly(deg)": -290.8505014861851,
        "RAAN(deg)": 309.98339935752085,
        "Satellite Name": "Starlink Shell 1 1367",
        "Satellite Number": 1367,
        "Semi-Major Axis(m)": 6931778.249405717,
        "Time(s)": 320
    },
    {
        "Altitude(m)": 558878.1923471115,
        "Argument of Periapsis(deg)": 0.011503089823870818,
        "Eccentricity": 0.0,
        "Inclination(deg)": 53.0,
        "Latitude(deg)": 48.68941097611434,
        "Longitude(deg)": -92.8537877303,
        "Mean Anomaly(deg)": -290.2236702826284,
        "RAAN(deg)": 309.98288058744345,
        "Satellite Name": "Starlink Shell 1 1367",
        "Satellite Number": 1367,
        "Semi-Major Axis(m)": 6931778.249405717,
        "Time(s)": 330
    },
    {
        "Altitude(m)": 558937.4644834223,
        "Argument of Periapsis(deg)": 0.011851668303382053,
        "Eccentricity": 0.0,
        "Inclination(deg)": 53.0,
        "Latitude(deg)": 48.94792316713281,
        "Longitude(deg)": -92.02983044254802,
        "Mean Anomaly(deg)": -289.5968390790717,
        "RAAN(deg)": 309.9823618173659,
        "Satellite Name": "Starlink Shell 1 1367",
        "Satellite Number": 1367,
        "Semi-Major Axis(m)": 6931778.249405717,
        "Time(s)": 340
    },
    {
        "Altitude(m)": 558995.2492743202,
        "Argument of Periapsis(deg)": 0.012200246782893292,
        "Eccentricity": 0.0,
        "Inclination(deg)": 53.0,
        "Latitude(deg)": 49.19986949674792,
        "Longitude(deg)": -91.19701013807185,
        "Mean Anomaly(deg)": -288.9700078755149,
        "RAAN(deg)": 309.98184304728846,
        "Satellite Name": "Starlink Shell 1 1367",
        "Satellite Number": 1367,
        "Semi-Major Axis(m)": 6931778.249405717,
        "Time(s)": 350
    },
    {
        "Altitude(m)": 559051.5114470767,
        "Argument of Periapsis(deg)": 0.012548825262404526,
        "Eccentricity": 0.0,
        "Inclination(deg)": 53.0,
        "Latitude(deg)": 49.44512542696026,
        "Longitude(deg)": -90.35539086447095,
        "Mean Anomaly(deg)": -288.34317667195825,
        "RAAN(deg)": 309.981324277211,
        "Satellite Name": "Starlink Shell 1 1367",
        "Satellite Number": 1367,
        "Semi-Major Axis(m)": 6931778.249405717,
        "Time(s)": 360
    },
    {
        "Altitude(m)": 559106.216702366,
        "Argument of Periapsis(deg)": 0.012897403741915765,
        "Eccentricity": 0.0,
        "Inclination(deg)": 53.0,
        "Latitude(deg)": 49.68356677448982,
        "Longitude(deg)": -89.50505095236022,
        "Mean Anomaly(deg)": -287.7163454684016,
        "RAAN(deg)": 309.9808055071335,
        "Satellite Name": "Starlink Shell 1 1367",
        "Satellite Number": 1367,
        "Semi-Major Axis(m)": 6931778.249405717,
        "Time(s)": 370
    }
]